[{"OBJECT_NAME":"STARLINK-6217","OBJECT_ID":"2023-088L","EPOCH":"2026-03-09T10:44:17.776608","MEAN_MOTION":15.02594659,"ECCENTRICITY":2.5e-5,"INCLINATION":43.0017,"RA_OF_ASC_NODE":108.7595,"ARG_OF_PERICENTER":325.32,"MEAN_ANOMALY":34.7627,"EPHEMERIS_TYPE":0,"CLASSIFICATION_TYPE":"U","NORAD_CAT_ID":57058,"ELEMENT_SET_NO":999,"REV_AT_EPOCH":15033,"BSTAR":0.00048557939,"MEAN_MOTION_DOT":6.372e-5,"MEAN_MOTION_DDOT":0},{"OBJECT_NAME":"SL-8 DEB","OBJECT_ID":"1981-041D","EPOCH":"2026-03-09T21:47:25.057824","MEAN_MOTION":15.02958497,"ECCENTRICITY":0.00072626,"INCLINATION":74.0316,"RA_OF_ASC_NODE":15.8034,"ARG_OF_PERICENTER":178.7148,"MEAN_ANOMALY":237.7014,"EPHEMERIS_TYPE":0,"CLASSIFICATION_TYPE":"U","NORAD_CAT_ID":14346,"ELEMENT_SET_NO":999,"REV_AT_EPOCH":27979,"BSTAR":0.0011219118,"MEAN_MOTION_DOT":0.00015083,"MEAN_MOTION_DDOT":0}]
